{
  "norad_id": 20776,
  "name": "SKYNET 4C",
  "history": [
    {
      "epoch": "2026-03-28T20:04:47.905248Z",
      "apogee_km": 35800.94077942267,
      "perigee_km": 35771.68286838377,
      "latitude_deg": 2.1953732068752703,
      "longitude_deg": 33.63177638419367,
      "height_km": 35799.80738429725,
      "semi_major_axis_km": 42164.44882390322,
      "eccentricity": 0.00034695,
      "inclination_deg": 13.3658,
      "raan_deg": 350.3637,
      "arg_perigee_deg": 5.3383,
      "mean_anomaly_deg": 165.0871,
      "mean_motion_rev_day": 1.00272795
    }
  ]
}